{
  "type": "FeatureCollection",
  "features": [
    {
      "type": "Feature",
      "geometry": {
        "type": "Polygon",
        "coordinates": [
          [
            [
              34.457251,
              31.532102,
              0
            ],
            [
              34.457539,
              31.532062,
              0
            ],
            [
              34.457876,
              31.532054,
              0
            ],
            [
              34.458191,
              31.53203,
              0
            ],
            [
              34.45815,
              31.532405,
              0
            ],
            [
              34.458114,
              31.532568,
              0
            ],
            [
              34.457787,
              31.53256,
              0
            ],
            [
              34.457473,
              31.532307,
              0
            ],
            [
              34.457251,
              31.532102,
              0
            ]
          ]
        ]
      },
      "properties": {
        "site_code": "ACT7444",
        "name": "ACT7444"
      }
    }
  ]
}