{
  "type": "FeatureCollection",
  "features": [
    {
      "type": "Feature",
      "geometry": {
        "type": "Polygon",
        "coordinates": [
          [
            [
              34.45135,
              31.5205461,
              0
            ],
            [
              34.4509047,
              31.520162,
              0
            ],
            [
              34.4512614,
              31.519883,
              0
            ],
            [
              34.4516772,
              31.5202123,
              0
            ],
            [
              34.45135,
              31.5205461,
              0
            ]
          ]
        ]
      },
      "properties": {
        "site_code": "GZA0393",
        "name": "GZA0393"
      }
    }
  ]
}