{
  "type": "FeatureCollection",
  "features": [
    {
      "type": "Feature",
      "geometry": {
        "type": "Polygon",
        "coordinates": [
          [
            [
              34.4561031,
              31.5160753,
              0
            ],
            [
              34.4554638,
              31.5165433,
              0
            ],
            [
              34.4547388,
              31.5159058,
              0
            ],
            [
              34.4553405,
              31.5154458,
              0
            ],
            [
              34.4561031,
              31.5160753,
              0
            ]
          ]
        ]
      },
      "properties": {
        "site_code": "GZA2136",
        "name": "GZA2136"
      }
    }
  ]
}