{
  "type": "FeatureCollection",
  "features": [
    {
      "type": "Feature",
      "geometry": {
        "type": "Polygon",
        "coordinates": [
          [
            [
              34.45068,
              31.5201177,
              0
            ],
            [
              34.4502937,
              31.5204561,
              0
            ],
            [
              34.4499719,
              31.5201635,
              0
            ],
            [
              34.4492209,
              31.5208768,
              0
            ],
            [
              34.4485342,
              31.5202915,
              0
            ],
            [
              34.4498968,
              31.5192123,
              0
            ],
            [
              34.450352,
              31.519663,
              0
            ],
            [
              34.45068,
              31.5201177,
              0
            ]
          ]
        ]
      },
      "properties": {
        "site_code": "GZA3314",
        "name": "GZA3314"
      }
    }
  ]
}