{
  "type": "FeatureCollection",
  "features": [
    {
      "type": "Feature",
      "geometry": {
        "type": "Polygon",
        "coordinates": [
          [
            [
              34.458525,
              31.5230008,
              0
            ],
            [
              34.4578148,
              31.5235899,
              0
            ],
            [
              34.457163,
              31.5229611,
              0
            ],
            [
              34.4578035,
              31.5224268,
              0
            ],
            [
              34.458525,
              31.5230008,
              0
            ]
          ]
        ]
      },
      "properties": {
        "site_code": "GZA4353",
        "name": "GZA4353"
      }
    }
  ]
}