{
  "type": "FeatureCollection",
  "features": [
    {
      "type": "Feature",
      "geometry": {
        "type": "Polygon",
        "coordinates": [
          [
            [
              34.460697,
              31.530499,
              0
            ],
            [
              34.460407,
              31.530817,
              0
            ],
            [
              34.459931,
              31.531151,
              0
            ],
            [
              34.459629,
              31.531351,
              0
            ],
            [
              34.459421,
              31.531121,
              0
            ],
            [
              34.459633,
              31.530901,
              0
            ],
            [
              34.459738,
              31.530737,
              0
            ],
            [
              34.460024,
              31.530606,
              0
            ],
            [
              34.460216,
              31.530422,
              0
            ],
            [
              34.460364,
              31.530244,
              0
            ],
            [
              34.460697,
              31.530499,
              0
            ]
          ]
        ]
      },
      "properties": {
        "site_code": "GZA5343",
        "name": "GZA5343"
      }
    }
  ]
}