{
  "type": "FeatureCollection",
  "features": [
    {
      "type": "Feature",
      "geometry": {
        "type": "Polygon",
        "coordinates": [
          [
            [
              34.4614177,
              31.5314469,
              0
            ],
            [
              34.4609378,
              31.531898,
              0
            ],
            [
              34.4602796,
              31.5313823,
              0
            ],
            [
              34.4607579,
              31.5308982,
              0
            ],
            [
              34.4614177,
              31.5314469,
              0
            ]
          ]
        ]
      },
      "properties": {
        "site_code": "GZA5270",
        "name": "GZA5270"
      }
    }
  ]
}