{
  "type": "FeatureCollection",
  "features": [
    {
      "type": "Feature",
      "geometry": {
        "type": "Polygon",
        "coordinates": [
          [
            [
              34.463347,
              31.5302858,
              0
            ],
            [
              34.463839,
              31.530653,
              0
            ],
            [
              34.4645731,
              31.5301206,
              0
            ],
            [
              34.464781,
              31.530284,
              0
            ],
            [
              34.4640819,
              31.5308451,
              0
            ],
            [
              34.4624492,
              31.5322462,
              0
            ],
            [
              34.461673,
              31.5316416,
              0
            ],
            [
              34.463347,
              31.5302858,
              0
            ]
          ]
        ]
      },
      "properties": {
        "site_code": "GZA5443",
        "name": "GZA5443"
      }
    }
  ]
}