{
  "type": "FeatureCollection",
  "features": [
    {
      "type": "Feature",
      "geometry": {
        "type": "Polygon",
        "coordinates": [
          [
            [
              34.4539018,
              31.5141941,
              0
            ],
            [
              34.4532419,
              31.5146457,
              0
            ],
            [
              34.4527668,
              31.5142064,
              0
            ],
            [
              34.4529636,
              31.5140104,
              0
            ],
            [
              34.4531619,
              31.5139647,
              0
            ],
            [
              34.4534096,
              31.5137413,
              0
            ],
            [
              34.453593,
              31.5138705,
              0
            ],
            [
              34.4536637,
              31.51397,
              0
            ],
            [
              34.4539018,
              31.5141941,
              0
            ]
          ]
        ]
      },
      "properties": {
        "site_code": "GZA5311",
        "name": "GZA5311"
      }
    }
  ]
}