{
  "type": "FeatureCollection",
  "features": [
    {
      "type": "Feature",
      "geometry": {
        "type": "Polygon",
        "coordinates": [
          [
            [
              34.467888,
              31.5291225,
              0
            ],
            [
              34.4667616,
              31.5301929,
              0
            ],
            [
              34.4652399,
              31.5288686,
              0
            ],
            [
              34.4664825,
              31.5279062,
              0
            ],
            [
              34.467888,
              31.5291225,
              0
            ]
          ]
        ]
      },
      "properties": {
        "site_code": "GZA5007",
        "name": "GZA5007"
      }
    }
  ]
}