{
  "type": "FeatureCollection",
  "features": [
    {
      "type": "Feature",
      "geometry": {
        "type": "Polygon",
        "coordinates": [
          [
            [
              34.267938,
              31.357833,
              0
            ],
            [
              34.269198,
              31.358281,
              0
            ],
            [
              34.268214,
              31.359123,
              0
            ],
            [
              34.26742,
              31.360003,
              0
            ],
            [
              34.266474,
              31.359212,
              0
            ],
            [
              34.267411,
              31.358588,
              0
            ],
            [
              34.267938,
              31.357833,
              0
            ]
          ]
        ]
      },
      "properties": {
        "site_code": "KYS0100",
        "name": "KYS0100"
      }
    }
  ]
}