{
  "type": "FeatureCollection",
  "features": [
    {
      "type": "Feature",
      "geometry": {
        "type": "Polygon",
        "coordinates": [
          [
            [
              34.259055,
              31.356731
            ],
            [
              34.259394,
              31.356385
            ],
            [
              34.259602,
              31.356188
            ],
            [
              34.259829,
              31.356315
            ],
            [
              34.259916,
              31.356269
            ],
            [
              34.260079,
              31.356113
            ],
            [
              34.260247,
              31.35595
            ],
            [
              34.260471,
              31.355742
            ],
            [
              34.260583,
              31.35564
            ],
            [
              34.260731,
              31.355522
            ],
            [
              34.260975,
              31.355217
            ],
            [
              34.261284,
              31.354998
            ],
            [
              34.26132,
              31.354938
            ],
            [
              34.26133,
              31.354947
            ],
            [
              34.261433,
              31.354835
            ],
            [
              34.261464,
              31.35476
            ],
            [
              34.261565,
              31.354693
            ],
            [
              34.261679,
              31.354538
            ],
            [
              34.261756,
              31.354483
            ],
            [
              34.262167,
              31.354726
            ],
            [
              34.261851,
              31.355151
            ],
            [
              34.261739,
              31.355232
            ],
            [
              34.262985,
              31.356299
            ],
            [
              34.262422,
              31.356652
            ],
            [
              34.262122,
              31.35631
            ],
            [
              34.26108,
              31.357598
            ],
            [
              34.260736,
              31.358008
            ],
            [
              34.260465,
              31.357831
            ],
            [
              34.260033,
              31.357517
            ],
            [
              34.259185,
              31.356849
            ],
            [
              34.259055,
              31.356731
            ]
          ]
        ]
      },
      "properties": {
        "site_code": "KYS0092",
        "name": "KYS0092",
        "description": "Al-Najjar community 1    <br>       <br>   OID   2    <br>   Name   Al-Najjar community 1    <br>   FolderPath   Sites_for_GFM    <br>   SymbolID   0    <br>   AltMode   0    <br>   Base   0    <br>   Clamped   -1    <br>   Extruded   0    <br>   Snippet       <br>   PopupInfo   Al-Najjar community 1    <br>       <br>   SHAPE   Polygon    <br>   Name   Al-Najjar community 1    <br>   Area       <br>   Site Code   KYS0092    <br>   SHAPE_Length   0.008149    <br>   SHAPE_Area   0.000004"
      }
    }
  ]
}