{
  "type": "FeatureCollection",
  "features": [
    {
      "type": "Feature",
      "geometry": {
        "type": "Polygon",
        "coordinates": [
          [
            [
              34.269961,
              31.356789,
              0
            ],
            [
              34.271207,
              31.356063,
              0
            ],
            [
              34.271442,
              31.356278,
              0
            ],
            [
              34.271603,
              31.356492,
              0
            ],
            [
              34.271747,
              31.356671,
              0
            ],
            [
              34.271412,
              31.35693,
              0
            ],
            [
              34.27095,
              31.357232,
              0
            ],
            [
              34.270699,
              31.357469,
              0
            ],
            [
              34.270156,
              31.357868,
              0
            ],
            [
              34.26961,
              31.358117,
              0
            ],
            [
              34.269243,
              31.358282,
              0
            ],
            [
              34.26894,
              31.358154,
              0
            ],
            [
              34.268384,
              31.357967,
              0
            ],
            [
              34.267927,
              31.357772,
              0
            ],
            [
              34.268352,
              31.357402,
              0
            ],
            [
              34.269051,
              31.357433,
              0
            ],
            [
              34.269457,
              31.35711,
              0
            ],
            [
              34.269961,
              31.356789,
              0
            ]
          ]
        ]
      },
      "properties": {
        "site_code": "KYS0835",
        "name": "KYS0835"
      }
    }
  ]
}