{
  "type": "FeatureCollection",
  "features": [
    {
      "type": "Feature",
      "geometry": {
        "type": "Polygon",
        "coordinates": [
          [
            [
              34.265792,
              31.359889,
              0
            ],
            [
              34.264728,
              31.361016,
              0
            ],
            [
              34.264087,
              31.360459,
              0
            ],
            [
              34.264183,
              31.360369,
              0
            ],
            [
              34.264915,
              31.359722,
              0
            ],
            [
              34.265445,
              31.359218,
              0
            ],
            [
              34.265993,
              31.35949,
              0
            ],
            [
              34.266107,
              31.359563,
              0
            ],
            [
              34.265792,
              31.359889,
              0
            ]
          ]
        ]
      },
      "properties": {
        "site_code": "KYS1715",
        "name": "KYS1715"
      }
    }
  ]
}