{
  "type": "FeatureCollection",
  "features": [
    {
      "type": "Feature",
      "geometry": {
        "type": "Polygon",
        "coordinates": [
          [
            [
              34.254839,
              31.352275
            ],
            [
              34.254735,
              31.352036
            ],
            [
              34.254556,
              31.351828
            ],
            [
              34.254446,
              31.351712
            ],
            [
              34.254197,
              31.351508
            ],
            [
              34.254063,
              31.351416
            ],
            [
              34.254199,
              31.351189
            ],
            [
              34.254379,
              31.350921
            ],
            [
              34.254509,
              31.350564
            ],
            [
              34.254523,
              31.350284
            ],
            [
              34.255024,
              31.350541
            ],
            [
              34.255428,
              31.350685
            ],
            [
              34.256004,
              31.350948
            ],
            [
              34.254839,
              31.352275
            ]
          ]
        ]
      },
      "properties": {
        "site_code": "KYS1902",
        "name": "KYS1902",
        "description": "KYS1902‏‏‏"
      }
    }
  ]
}