{
  "type": "FeatureCollection",
  "features": [
    {
      "type": "Feature",
      "geometry": {
        "type": "Polygon",
        "coordinates": [
          [
            [
              34.4499696,
              31.5208416,
              0
            ],
            [
              34.4497157,
              31.5210717,
              0
            ],
            [
              34.4494825,
              31.520871,
              0
            ],
            [
              34.4496946,
              31.5206263,
              0
            ],
            [
              34.4499696,
              31.5208416,
              0
            ]
          ]
        ]
      },
      "properties": {
        "site_code": "GZA4388",
        "name": "GZA4388"
      }
    }
  ]
}