{
  "type": "FeatureCollection",
  "features": [
    {
      "type": "Feature",
      "geometry": {
        "type": "Polygon",
        "coordinates": [
          [
            [
              34.4566236,
              31.5246473,
              0
            ],
            [
              34.4558029,
              31.5253516,
              0
            ],
            [
              34.4550304,
              31.5248097,
              0
            ],
            [
              34.4551471,
              31.5247091,
              0
            ],
            [
              34.4559377,
              31.5240358,
              0
            ],
            [
              34.4559987,
              31.5240712,
              0
            ],
            [
              34.4566236,
              31.5246473,
              0
            ]
          ]
        ]
      },
      "properties": {
        "site_code": "GZA4122",
        "name": "GZA4122"
      }
    }
  ]
}