{
  "type": "FeatureCollection",
  "features": [
    {
      "type": "Feature",
      "geometry": {
        "type": "Polygon",
        "coordinates": [
          [
            [
              34.4555085,
              31.5222164,
              0
            ],
            [
              34.4550122,
              31.5226714,
              0
            ],
            [
              34.4548433,
              31.5225365,
              0
            ],
            [
              34.4553985,
              31.5219763,
              0
            ],
            [
              34.4556131,
              31.5221295,
              0
            ],
            [
              34.4555085,
              31.5222164,
              0
            ]
          ]
        ]
      },
      "properties": {
        "site_code": "GZA5001",
        "name": "GZA5001"
      }
    }
  ]
}