{
  "type": "FeatureCollection",
  "features": [
    {
      "type": "Feature",
      "geometry": {
        "type": "Polygon",
        "coordinates": [
          [
            [
              34.4540867,
              31.5166201,
              0
            ],
            [
              34.4547413,
              31.5171619,
              0
            ],
            [
              34.4534699,
              31.5181428,
              0
            ],
            [
              34.4528879,
              31.5176672,
              0
            ],
            [
              34.4540867,
              31.5166201,
              0
            ]
          ]
        ]
      },
      "properties": {
        "site_code": "GZA6018",
        "name": "GZA6018"
      }
    }
  ]
}