{
"type": "FeatureCollection",
"name": "some_neighborhood",
"crs": { "type": "name", "properties": { "name": "urn:ogc:def:crs:OGC:1.3:CRS84" } },
"features": [
{ "type": "Feature", "properties": { "fid": 111, "OBJECTID": 111, "Pop_projec": 4145, "PCOE_Munic": "27002", "Governorat": "Khan Yunis", "Neighbourh": "As Salam", "PCODE_Neig": "27002114", "Name_Munic": "Khan Yunis", "PCODE_Gove": "270", "Shape__Are": 3654869.1854099999, "Shape__Len": 10439.096183199999, "Shape_Length": 10439.096183196149, "Shape_Area": 3654869.185408657, "PCODE_Niegh_Int": 27002114, "PCODE_Munic_Int": 27002, "PCODE_Govern_Int": 270 }, "geometry": { "type": "MultiPolygon", "coordinates": [ [ [ [ 34.305155699393104, 31.304827783030554 ], [ 34.305138936385916, 31.304748464907512 ], [ 34.305120276565894, 31.304679947909136 ], [ 34.30509790545905, 31.304612257125509 ], [ 34.305071869211282, 31.304545538237292 ], [ 34.305028536452255, 31.304452400925943 ], [ 34.304897512859554, 31.304208942717271 ], [ 34.304807267074658, 31.304041254768389 ], [ 34.304638325073235, 31.303735018728744 ], [ 34.304581462812038, 31.303631945956202 ], [ 34.304351140827919, 31.303224496844948 ], [ 34.304260977866399, 31.303068779430717 ], [ 34.304116319558965, 31.302818946016 ], [ 34.303835925522499, 31.302364201896733 ], [ 34.303692543123972, 31.302137350443708 ], [ 34.303554764929373, 31.30191936259698 ], [ 34.303534152509613, 31.301887544734999 ], [ 34.303463873236183, 31.301779055629623 ], [ 34.303484791333574, 31.30171776806062 ], [ 34.303439802037033, 31.30174189771876 ], [ 34.30332502661053, 31.301564127692941 ], [ 34.303265852979997, 31.301473378831354 ], [ 34.303204258875041, 31.301371346679037 ], [ 34.302989826973622, 31.301029586682116 ], [ 34.302842359418911, 31.300812198803175 ], [ 34.302680819109121, 31.300587583649332 ], [ 34.302528959397542, 31.30038709882022 ], [ 34.302355737426666, 31.300170756439822 ], [ 34.302191579674023, 31.299975752094387 ], [ 34.302156308723504, 31.299935954054593 ], [ 34.302008421829335, 31.299769404083147 ], [ 34.301932109531897, 31.299687557727168 ], [ 34.301831037864105, 31.299579155167816 ], [ 34.301680064464364, 31.299425157331701 ], [ 34.301642352618998, 31.299386689325296 ], [ 34.301539828268105, 31.299277884440979 ], [ 34.300900832106862, 31.298599748069076 ], [ 34.30060290500424, 31.298282306711251 ], [ 34.300413887888325, 31.298080908079726 ], [ 34.30031221871424, 31.297972579756191 ], [ 34.300161104705808, 31.297811567037598 ], [ 34.300138431990177, 31.297787481209262 ], [ 34.29970193883905, 31.297323775388183 ], [ 34.299539039503777, 31.297150721666988 ], [ 34.299425208511444, 31.297029793210427 ], [ 34.299299179445093, 31.296895583566346 ], [ 34.299190468334707, 31.29677875488898 ], [ 34.298907110096572, 31.296474236223112 ], [ 34.298862147412173, 31.296425915868625 ], [ 34.298759209546404, 31.296315291298146 ], [ 34.298633857336377, 31.296180577011082 ], [ 34.298445169340908, 31.295944864989998 ], [ 34.298330953875137, 31.295816373751357 ], [ 34.298283974890474, 31.295759491185265 ], [ 34.298241249395922, 31.295699350256221 ], [ 34.298202999189876, 31.295636266291492 ], [ 34.298169429496056, 31.295570571927083 ], [ 34.298140714244624, 31.295502616354188 ], [ 34.298118480108229, 31.295437634687122 ], [ 34.298100688390477, 31.29537129996098 ], [ 34.298087417808802, 31.295303913610262 ], [ 34.298078732496897, 31.295235786238205 ], [ 34.298065072484526, 31.295124809882566 ], [ 34.298044902908167, 31.295014831261735 ], [ 34.298018293085825, 31.294906230389028 ], [ 34.297907648418366, 31.294477927411812 ], [ 34.297679219731805, 31.293617751999804 ], [ 34.297635184232441, 31.293444187408014 ], [ 34.297571998438571, 31.293445672038725 ], [ 34.297560007996822, 31.293388164105878 ], [ 34.297383379499536, 31.293393777298068 ], [ 34.297160771204275, 31.293409108249072 ], [ 34.296940629094657, 31.293429846803821 ], [ 34.296793919762699, 31.293446380099159 ], [ 34.29666708515218, 31.293459810277476 ], [ 34.296552163369995, 31.293474323569395 ], [ 34.296431774516591, 31.293491927761547 ], [ 34.296309543513971, 31.293512342664229 ], [ 34.296187805812302, 31.293535259615016 ], [ 34.296064004647349, 31.29356124572147 ], [ 34.295975803310967, 31.293581341255077 ], [ 34.295927008205823, 31.293593091857893 ], [ 34.29579667844687, 31.293626756131456 ], [ 34.295669375341255, 31.293662875230382 ], [ 34.295541997668956, 31.29370230593657 ], [ 34.295411228179674, 31.293746318590077 ], [ 34.295280608163743, 31.293793971682632 ], [ 34.295232670337768, 31.29381241924067 ], [ 34.295050134546315, 31.293884735142356 ], [ 34.294883125497634, 31.29395729120084 ], [ 34.294786407183103, 31.294002197691718 ], [ 34.294674065054728, 31.294057160268729 ], [ 34.294582246690567, 31.294104535182434 ], [ 34.294502758311509, 31.294143696857585 ], [ 34.294321456773453, 31.294230537841283 ], [ 34.294143254940003, 31.294313512195298 ], [ 34.294111780380859, 31.294327936650749 ], [ 34.294005831956831, 31.294375937104139 ], [ 34.293953212277543, 31.294399475421994 ], [ 34.293897276352155, 31.294424284912353 ], [ 34.293757303126718, 31.294485396425646 ], [ 34.293692734159841, 31.294513123817836 ], [ 34.293607164932951, 31.294549422253695 ], [ 34.29354402948298, 31.294575883817163 ], [ 34.293478228307762, 31.294603170622384 ], [ 34.293371197287769, 31.294649337419397 ], [ 34.293238370391485, 31.294707733036354 ], [ 34.293144968045802, 31.294749539332241 ], [ 34.293028422621205, 31.294802576076641 ], [ 34.29296319561778, 31.294832695082775 ], [ 34.292915442009914, 31.294854935383476 ], [ 34.2928777894098, 31.29487258836954 ], [ 34.29272661992524, 31.294944507670877 ], [ 34.292685987261692, 31.294964129371355 ], [ 34.292588319968857, 31.295011786397843 ], [ 34.292522269863206, 31.295044432339754 ], [ 34.292454540004499, 31.295078249936228 ], [ 34.292409460035984, 31.295100956635157 ], [ 34.292364153635368, 31.295123932640852 ], [ 34.292278585297311, 31.29516776606226 ], [ 34.292216200531428, 31.295190629677052 ], [ 34.29206749931312, 31.295269965420182 ], [ 34.291870217884188, 31.29536268085096 ], [ 34.291824940568347, 31.295383879995228 ], [ 34.291654889450818, 31.29546324778136 ], [ 34.291238890867078, 31.295655696823001 ], [ 34.290821288564658, 31.295846464570392 ], [ 34.290458280509576, 31.296014334645903 ], [ 34.290059724497034, 31.296199970973323 ], [ 34.289919777145883, 31.296270533809274 ], [ 34.289781125811231, 31.29634354641718 ], [ 34.289566658141148, 31.296462826805296 ], [ 34.289356469526567, 31.296587612257866 ], [ 34.289150676646734, 31.296717831255009 ], [ 34.289036384367115, 31.296793793154187 ], [ 34.288822788839575, 31.296947654765635 ], [ 34.288612143888137, 31.297105300819961 ], [ 34.288405034287699, 31.297266314073099 ], [ 34.288356422126235, 31.297305005267177 ], [ 34.288112541347026, 31.29750449482 ], [ 34.287873877759104, 31.29770882499891 ], [ 34.287652997773414, 31.297915492602197 ], [ 34.287436104500394, 31.298124588219732 ], [ 34.287222020874687, 31.298337245975368 ], [ 34.287011775871612, 31.298552489341198 ], [ 34.286888661114986, 31.298677899400641 ], [ 34.286522611686991, 31.299048701777178 ], [ 34.286150290214579, 31.299416264896276 ], [ 34.286099701136081, 31.299387840597461 ], [ 34.286059566578594, 31.29935797275321 ], [ 34.286024802481414, 31.29932349873885 ], [ 34.285996118097671, 31.299285118761528 ], [ 34.285974100941928, 31.299243620856164 ], [ 34.28588197117206, 31.298954423699275 ], [ 34.28579468003538, 31.298664125169545 ], [ 34.285769414317095, 31.298589034771688 ], [ 34.285737656391341, 31.298515783945593 ], [ 34.285707955496548, 31.298452190150439 ], [ 34.285685794367552, 31.298386368272908 ], [ 34.285671395197802, 31.298318975582781 ], [ 34.285664899522033, 31.298250687297475 ], [ 34.285666373261385, 31.298182181194367 ], [ 34.285675801557467, 31.298114143977703 ], [ 34.285693090653737, 31.298047255020556 ], [ 34.285747507722292, 31.297841403064581 ], [ 34.285796915053979, 31.297634620577231 ], [ 34.285841293982699, 31.297427000674613 ], [ 34.285880624731192, 31.297218631972545 ], [ 34.285894967435937, 31.297110961676612 ], [ 34.285903596960587, 31.297002844267524 ], [ 34.285906359254646, 31.296889123551257 ], [ 34.285905481301747, 31.296855960251104 ], [ 34.285536576760677, 31.297101450105412 ], [ 34.285146327725002, 31.297354232794959 ], [ 34.284682594903721, 31.297664675819416 ], [ 34.284262195251415, 31.297891066622849 ], [ 34.283939440620877, 31.298064871820085 ], [ 34.283065380033669, 31.298611485628808 ], [ 34.282843219226137, 31.298911759575457 ], [ 34.282643530826874, 31.299201954232384 ], [ 34.282321607219572, 31.299710906341382 ], [ 34.281995889050862, 31.300147046661902 ], [ 34.281874920124466, 31.300323572244238 ], [ 34.281510411815155, 31.300747674708322 ], [ 34.281241345502266, 31.301060726030737 ], [ 34.279345553564355, 31.302915729925971 ], [ 34.279133051616753, 31.30273589606578 ], [ 34.278728974619128, 31.303093282059837 ], [ 34.278553284778219, 31.303231561361947 ], [ 34.27844152227825, 31.303321551060577 ], [ 34.278372624491531, 31.303380729555307 ], [ 34.278305225839667, 31.303441609028805 ], [ 34.278272710217905, 31.303463380140759 ], [ 34.27823503492727, 31.303477554860997 ], [ 34.278207442789494, 31.303485697395352 ], [ 34.278139092319101, 31.303536249127035 ], [ 34.278067076726579, 31.303582742326054 ], [ 34.27797498692243, 31.303635212806942 ], [ 34.277898684847536, 31.303676223648729 ], [ 34.277823860954861, 31.303719873035757 ], [ 34.277817931704078, 31.303757623143614 ], [ 34.277793278095515, 31.303773534757379 ], [ 34.277705155746261, 31.303792394700935 ], [ 34.277655393456818, 31.30380965587679 ], [ 34.277530924096588, 31.303863982815251 ], [ 34.277451924013569, 31.303907998321527 ], [ 34.277376586900942, 31.303958027333842 ], [ 34.277333154182543, 31.303989552878019 ], [ 34.277220863302603, 31.304071060025414 ], [ 34.277177147123275, 31.304102454815464 ], [ 34.277177277517154, 31.304102696203895 ], [ 34.277209825245748, 31.304155230962191 ], [ 34.277327941452207, 31.304346123907617 ], [ 34.277451444722338, 31.304546168038371 ], [ 34.277483219652389, 31.304597707187298 ], [ 34.277500086493042, 31.304625079203017 ], [ 34.277526091050518, 31.304667287706476 ], [ 34.277559375332316, 31.304721349638189 ], [ 34.277677844870503, 31.304914025014067 ], [ 34.277947715890775, 31.305319645220802 ], [ 34.278141729320964, 31.305610811180543 ], [ 34.278315196855871, 31.305863081972646 ], [ 34.278530307974464, 31.306175924021375 ], [ 34.278561516373301, 31.30622020690231 ], [ 34.278601370857544, 31.306276741831379 ], [ 34.278637777493877, 31.306327957571497 ], [ 34.278904899820525, 31.306684981977739 ], [ 34.278998394338117, 31.306801231570585 ], [ 34.279173565236327, 31.307042675152964 ], [ 34.279312223969796, 31.307228893836676 ], [ 34.279392350743265, 31.307336434986574 ], [ 34.279494317760189, 31.307473285738482 ], [ 34.279521763440762, 31.307510121412484 ], [ 34.279654179584405, 31.307687297147528 ], [ 34.279702385698535, 31.307749423147861 ], [ 34.279723344552323, 31.307776108097432 ], [ 34.279745808844559, 31.307806111575527 ], [ 34.279766598249459, 31.307837437190322 ], [ 34.279785218733856, 31.307860590865786 ], [ 34.279894843459971, 31.307996637790065 ], [ 34.279926836964314, 31.308034546733126 ], [ 34.279961016009004, 31.30807431491559 ], [ 34.280031335627228, 31.308153826283213 ], [ 34.280166253958726, 31.308298410688646 ], [ 34.280226398394539, 31.308359751641646 ], [ 34.280260361002171, 31.308393599118222 ], [ 34.280285775224044, 31.308418560596245 ], [ 34.280332700971528, 31.308463887077853 ], [ 34.280482566780123, 31.308602132256045 ], [ 34.28097140809497, 31.309065706834474 ], [ 34.28149213383319, 31.3095655209295 ], [ 34.281490789381785, 31.309596293988648 ], [ 34.281485809035992, 31.309626044183862 ], [ 34.281475409568614, 31.309659890207339 ], [ 34.28154959079145, 31.309727808894177 ], [ 34.281669453050057, 31.309849750252411 ], [ 34.281822776796744, 31.310010947554261 ], [ 34.281852273417371, 31.310043145785944 ], [ 34.281871755111545, 31.310064412209783 ], [ 34.281972635335492, 31.310174532129839 ], [ 34.282045517086573, 31.310257159004525 ], [ 34.282325144847185, 31.310011174636337 ], [ 34.282615864513104, 31.309776218017859 ], [ 34.283615315738601, 31.309024354119671 ], [ 34.28447877813408, 31.308440461151047 ], [ 34.284313058205001, 31.308236551269292 ], [ 34.284149812846188, 31.308030653275107 ], [ 34.285319247660325, 31.306688035909417 ], [ 34.285342108759089, 31.306661878576442 ], [ 34.285698057314889, 31.306255062894408 ], [ 34.285739640058019, 31.306202659629896 ], [ 34.28616437449891, 31.306434658294112 ], [ 34.28644277093165, 31.306159829604052 ], [ 34.286178650934822, 31.305970663323095 ], [ 34.286014467475638, 31.305849309859862 ], [ 34.286409424991533, 31.305381566573807 ], [ 34.286553079826135, 31.305221114581215 ], [ 34.28669162090722, 31.305056225357831 ], [ 34.286824909672283, 31.304887062699716 ], [ 34.286952816028148, 31.304713794828874 ], [ 34.287094623290336, 31.30478993160699 ], [ 34.287370332946317, 31.304930702721386 ], [ 34.287413951519582, 31.304950303594936 ], [ 34.287459970692105, 31.304965321697708 ], [ 34.287507742417311, 31.304975544296806 ], [ 34.287556589100568, 31.304980826619506 ], [ 34.287610727430931, 31.304975770173506 ], [ 34.287665060528127, 31.304977848851163 ], [ 34.287718654870829, 31.304987026905145 ], [ 34.287771193656333, 31.304996467229216 ], [ 34.287824379299202, 31.305001012162585 ], [ 34.287877757349136, 31.305000622958278 ], [ 34.287930870780691, 31.304995303298035 ], [ 34.287983266285003, 31.304985098327112 ], [ 34.288049778688091, 31.304997469373316 ], [ 34.288114696516224, 31.305016511718836 ], [ 34.288177352048642, 31.305042032683957 ], [ 34.288237099705661, 31.305073768096364 ], [ 34.288293326676815, 31.305111391205966 ], [ 34.288606152515847, 31.305292422035507 ], [ 34.288917942476196, 31.305475228029334 ], [ 34.289041461694516, 31.305548311880482 ], [ 34.289150704257757, 31.305613257890364 ], [ 34.289714109314751, 31.305952942365654 ], [ 34.289744026806808, 31.305971204087566 ], [ 34.290180904087116, 31.306236845625875 ], [ 34.290521753636455, 31.306448041107021 ], [ 34.290861035496548, 31.306661746822027 ], [ 34.290910970147245, 31.30669942297822 ], [ 34.290732609893936, 31.30690986166783 ], [ 34.290195572089878, 31.307641542896071 ], [ 34.290365298595418, 31.307723220696243 ], [ 34.29043403417888, 31.307756299161479 ], [ 34.290674014508362, 31.307867846017157 ], [ 34.290854096836874, 31.307952665075501 ], [ 34.291032081165007, 31.308041802020437 ], [ 34.291207861760988, 31.30813520740174 ], [ 34.291381340159802, 31.308232825381406 ], [ 34.291745685877196, 31.308443827973704 ], [ 34.291819355280175, 31.308486491246683 ], [ 34.292318084796833, 31.308868188926763 ], [ 34.292695396613396, 31.309105908684703 ], [ 34.291139604482325, 31.311889333573184 ], [ 34.291312368394514, 31.311925529727237 ], [ 34.291555137635619, 31.311976393555057 ], [ 34.291713888359048, 31.312000429909322 ], [ 34.291749094819245, 31.312005760285423 ], [ 34.29194402751871, 31.312029911368853 ], [ 34.292139743061526, 31.312048821675429 ], [ 34.292336051023774, 31.312062476879827 ], [ 34.292493645404775, 31.312082609376606 ], [ 34.292731647059362, 31.312113009870657 ], [ 34.292783137504706, 31.312119152149904 ], [ 34.292892209332763, 31.312132161101985 ], [ 34.293194847491158, 31.312168254797839 ], [ 34.293312515385949, 31.312182289185206 ], [ 34.293709748382497, 31.312229663093085 ], [ 34.293918577665742, 31.312254567889113 ], [ 34.294152145606326, 31.312282422986073 ], [ 34.294779205904035, 31.312357203283213 ], [ 34.294991277483284, 31.312383952849313 ], [ 34.295167678394435, 31.312410012682811 ], [ 34.295208409117777, 31.312416098329987 ], [ 34.29526458567787, 31.312425560140724 ], [ 34.295400841967641, 31.312448655036995 ], [ 34.29558654147646, 31.312483754057546 ], [ 34.295771307021852, 31.31252231213784 ], [ 34.296392841765559, 31.312655702933935 ], [ 34.296553001496868, 31.312690074156567 ], [ 34.296762952396328, 31.312735131912568 ], [ 34.297073858999703, 31.312806996005875 ], [ 34.297369965636165, 31.312880031955515 ], [ 34.297663625148445, 31.312956653720036 ], [ 34.297724241799287, 31.312973384371201 ], [ 34.297942593500814, 31.313033647064483 ], [ 34.298113872196886, 31.313083504253836 ], [ 34.298241857897644, 31.313120759913279 ], [ 34.298411711692346, 31.313172892850861 ], [ 34.298539413209873, 31.313212088946745 ], [ 34.298625786566603, 31.313239983748879 ], [ 34.298835176098606, 31.31330760795392 ], [ 34.298897274447995, 31.313328521757409 ], [ 34.299042987492349, 31.313377597935208 ], [ 34.299242901348507, 31.313442545870384 ], [ 34.299799942269715, 31.313625456740031 ], [ 34.299838771920832, 31.313638207344553 ], [ 34.300433426447434, 31.313836581224461 ], [ 34.300625424506407, 31.313901473626718 ], [ 34.300833609306622, 31.313971837589342 ], [ 34.300959036641167, 31.314020349344101 ], [ 34.301033874100106, 31.314049293139476 ], [ 34.301114133279015, 31.314080333621064 ], [ 34.301397503244736, 31.314183231078182 ], [ 34.301683571284038, 31.314280474605766 ], [ 34.301917051029726, 31.314355029815722 ], [ 34.302152116496323, 31.314425818187484 ], [ 34.3023886864083, 31.314492815276633 ], [ 34.302812490734361, 31.314610867632698 ], [ 34.302956451130555, 31.314650968750058 ], [ 34.303522180502867, 31.314814412622788 ], [ 34.303872321096499, 31.314918528326306 ], [ 34.304057349511986, 31.314974749673013 ], [ 34.304221637081035, 31.315024669590819 ], [ 34.304957310118887, 31.315283877995203 ], [ 34.305694309482412, 31.315540298048656 ], [ 34.305736700937715, 31.315554876298958 ], [ 34.306278784374761, 31.315741282988512 ], [ 34.3063147014715, 31.315753633605897 ], [ 34.306739325446259, 31.315898332576609 ], [ 34.306822819346579, 31.315927698153864 ], [ 34.30697726018694, 31.315982017160927 ], [ 34.307067651880388, 31.316013808655331 ], [ 34.307305344891915, 31.316098818563294 ], [ 34.307546999709018, 31.316186467114377 ], [ 34.307975552859894, 31.316344961175279 ], [ 34.308402427598473, 31.316506758386357 ], [ 34.308754463842938, 31.316643168642717 ], [ 34.308817681869826, 31.316669962720805 ], [ 34.308861487768333, 31.3166867493455 ], [ 34.309116094769216, 31.316775583604777 ], [ 34.308942844875133, 31.316491745105882 ], [ 34.308778538194083, 31.316222679309469 ], [ 34.308641501445663, 31.316020973633414 ], [ 34.308510357684007, 31.315816401984595 ], [ 34.308385191647716, 31.315609090723544 ], [ 34.308266077578452, 31.315399167219468 ], [ 34.308216711179718, 31.31530636070546 ], [ 34.308153091866771, 31.315186762427864 ], [ 34.308046302495342, 31.314972007389329 ], [ 34.307887356090831, 31.314626449376025 ], [ 34.307807095737637, 31.314451959215749 ], [ 34.307585268118707, 31.313959286669785 ], [ 34.307572278507465, 31.313930437669409 ], [ 34.3073805935095, 31.313495378793213 ], [ 34.30734186378919, 31.313407474218849 ], [ 34.307192670737898, 31.313057471007159 ], [ 34.307078128647618, 31.312799627828319 ], [ 34.307022278212074, 31.312647324627818 ], [ 34.30701090462734, 31.312616310138552 ], [ 34.306763325688763, 31.312051445665993 ], [ 34.30666154547383, 31.311844863359347 ], [ 34.306535435559233, 31.311563996663459 ], [ 34.306374776795252, 31.311199202421378 ], [ 34.306122556474953, 31.310648921261198 ], [ 34.306033699974172, 31.310456062423622 ], [ 34.305894990494579, 31.310174181893977 ], [ 34.305865655133438, 31.310110620127556 ], [ 34.305766762440413, 31.309896344576867 ], [ 34.305646013227474, 31.309616046618192 ], [ 34.30562973622601, 31.30957541327934 ], [ 34.305532810041967, 31.309333439823469 ], [ 34.305514282118601, 31.309270238099824 ], [ 34.305396511334621, 31.30886849724406 ], [ 34.30528095051843, 31.308393242942287 ], [ 34.305302066496736, 31.308360848747927 ], [ 34.305299805561546, 31.308332603113897 ], [ 34.305268350285871, 31.308196391066428 ], [ 34.305251144874461, 31.308119566596215 ], [ 34.305211384741341, 31.307909987810966 ], [ 34.305178595888897, 31.307699521676263 ], [ 34.305152803748506, 31.307488339352094 ], [ 34.305140317929599, 31.307250980596773 ], [ 34.305136034534797, 31.30701340764233 ], [ 34.305139957450976, 31.306775830656957 ], [ 34.305144496565227, 31.306478540818507 ], [ 34.305157374712067, 31.306181429638912 ], [ 34.305157636913634, 31.306062206868631 ], [ 34.305158422445437, 31.305705373064441 ], [ 34.305160062497258, 31.305576114061257 ], [ 34.305161485457532, 31.305464107677363 ], [ 34.30515855540979, 31.305232770244388 ], [ 34.305172743592536, 31.305149184213906 ], [ 34.305176016235521, 31.305068757569387 ], [ 34.305174265089207, 31.304988159151936 ], [ 34.305167486848497, 31.304907757982733 ], [ 34.305155699393104, 31.304827783030554 ] ] ] ] } }
]
}
