{
  "type": "FeatureCollection",
  "features": [
    {
      "type": "Feature",
      "geometry": {
        "type": "Polygon",
        "coordinates": [
          [
            [
              34.266474,
              31.359212,
              0
            ],
            [
              34.266013,
              31.358929,
              0
            ],
            [
              34.265903,
              31.358845,
              0
            ],
            [
              34.265723,
              31.358661,
              0
            ],
            [
              34.264868,
              31.357903,
              0
            ],
            [
              34.265123,
              31.357677,
              0
            ],
            [
              34.265704,
              31.35719,
              0
            ],
            [
              34.266229,
              31.356697,
              0
            ],
            [
              34.267938,
              31.357833,
              0
            ],
            [
              34.267411,
              31.358588,
              0
            ],
            [
              34.266474,
              31.359212,
              0
            ]
          ]
        ]
      },
      "properties": {
        "site_code": "KYS0825",
        "name": "KYS0825"
      }
    }
  ]
}