{
  "type": "FeatureCollection",
  "features": [
    {
      "type": "Feature",
      "geometry": {
        "type": "Polygon",
        "coordinates": [
          [
            [
              34.262941,
              31.349657
            ],
            [
              34.263392,
              31.350121
            ],
            [
              34.261595,
              31.351439
            ],
            [
              34.260986,
              31.351911
            ],
            [
              34.260848,
              31.352077
            ],
            [
              34.260691,
              31.352283
            ],
            [
              34.260579,
              31.352573
            ],
            [
              34.2605,
              31.352782
            ],
            [
              34.260442,
              31.35274
            ],
            [
              34.259873,
              31.353368
            ],
            [
              34.259248,
              31.353115
            ],
            [
              34.258281,
              31.352705
            ],
            [
              34.258138,
              31.352624
            ],
            [
              34.258555,
              31.352081
            ],
            [
              34.258761,
              31.351673
            ],
            [
              34.258436,
              31.351467
            ],
            [
              34.258451,
              31.351179
            ],
            [
              34.258539,
              31.350973
            ],
            [
              34.258594,
              31.350844
            ],
            [
              34.258676,
              31.35069
            ],
            [
              34.258692,
              31.350415
            ],
            [
              34.25871,
              31.350118
            ],
            [
              34.259114,
              31.34979
            ],
            [
              34.259866,
              31.349652
            ],
            [
              34.260845,
              31.349572
            ],
            [
              34.261502,
              31.3498
            ],
            [
              34.261924,
              31.349505
            ],
            [
              34.262618,
              31.349118
            ],
            [
              34.262941,
              31.349657
            ]
          ]
        ]
      },
      "properties": {
        "site_code": "KYS0939",
        "name": "KYS0939",
        "description": "Ahali Al-Junaina    <br>       <br>   OID   22    <br>   Name   Ahali Al-Junaina    <br>   FolderPath   Sites_for_GFM    <br>   SymbolID   0    <br>   AltMode   0    <br>   Base   0    <br>   Clamped   -1    <br>   Extruded   0    <br>   Snippet       <br>   PopupInfo   SHAPE Polygon <br> Name  <br> Area  <br> Site Code KYS0939 <br> SHAPE_Length 0.01061 <br> SHAPE_Area 0.000005"
      }
    }
  ]
}