{
  "type": "FeatureCollection",
  "features": [
    {
      "type": "Feature",
      "geometry": {
        "type": "Polygon",
        "coordinates": [
          [
            [
              34.264868,
              31.357903,
              0
            ],
            [
              34.265831,
              31.358796,
              0
            ],
            [
              34.26541,
              31.35925,
              0
            ],
            [
              34.264915,
              31.359722,
              0
            ],
            [
              34.264043,
              31.360463,
              0
            ],
            [
              34.263381,
              31.360009,
              0
            ],
            [
              34.26289,
              31.359627,
              0
            ],
            [
              34.264868,
              31.357903,
              0
            ]
          ]
        ]
      },
      "properties": {
        "site_code": "KYS1713",
        "name": "KYS1713"
      }
    }
  ]
}