{
  "type": "FeatureCollection",
  "features": [
    {
      "type": "Feature",
      "geometry": {
        "type": "Polygon",
        "coordinates": [
          [
            [
              34.4664825,
              31.5279062,
              0
            ],
            [
              34.4652399,
              31.5288686,
              0
            ],
            [
              34.4648774,
              31.5290217,
              0
            ],
            [
              34.462884,
              31.526598,
              0
            ],
            [
              34.463981,
              31.525714,
              0
            ],
            [
              34.4664825,
              31.5279062,
              0
            ]
          ]
        ]
      },
      "properties": {
        "site_code": "ACT8999",
        "name": "ACT8999"
      }
    }
  ]
}