{
  "type": "FeatureCollection",
  "features": [
    {
      "type": "Feature",
      "geometry": {
        "type": "Polygon",
        "coordinates": [
          [
            [
              34.4518226,
              31.5202554,
              0
            ],
            [
              34.451372,
              31.5198439,
              0
            ],
            [
              34.4515088,
              31.5197204,
              0
            ],
            [
              34.45171,
              31.51958,
              0
            ],
            [
              34.4518218,
              31.519629,
              0
            ],
            [
              34.4519403,
              31.5196867,
              0
            ],
            [
              34.4519959,
              31.5196347,
              0
            ],
            [
              34.452225,
              31.5198301,
              0
            ],
            [
              34.4518226,
              31.5202554,
              0
            ]
          ]
        ]
      },
      "properties": {
        "site_code": "GZA0391",
        "name": "GZA0391"
      }
    }
  ]
}