{
  "type": "FeatureCollection",
  "features": [
    {
      "type": "Feature",
      "geometry": {
        "type": "Polygon",
        "coordinates": [
          [
            [
              34.457242,
              31.519904,
              0
            ],
            [
              34.457866,
              31.520378,
              0
            ],
            [
              34.45779,
              31.520472,
              0
            ],
            [
              34.457506,
              31.520259,
              0
            ],
            [
              34.457054,
              31.520614,
              0
            ],
            [
              34.456795,
              31.520394,
              0
            ],
            [
              34.457242,
              31.519904,
              0
            ]
          ]
        ]
      },
      "properties": {
        "site_code": "GZA4437",
        "name": "GZA4437"
      }
    }
  ]
}