{
  "type": "FeatureCollection",
  "features": [
    {
      "type": "Feature",
      "geometry": {
        "type": "Polygon",
        "coordinates": [
          [
            [
              34.269961,
              31.356789,
              0
            ],
            [
              34.269628,
              31.356402,
              0
            ],
            [
              34.269078,
              31.356748,
              0
            ],
            [
              34.268618,
              31.356136,
              0
            ],
            [
              34.268104,
              31.355786,
              0
            ],
            [
              34.267449,
              31.355257,
              0
            ],
            [
              34.268083,
              31.354746,
              0
            ],
            [
              34.268515,
              31.354378,
              0
            ],
            [
              34.269043,
              31.353947,
              0
            ],
            [
              34.269595,
              31.354521,
              0
            ],
            [
              34.270556,
              31.355523,
              0
            ],
            [
              34.27113,
              31.356076,
              0
            ],
            [
              34.269961,
              31.356789,
              0
            ]
          ]
        ]
      },
      "properties": {
        "site_code": "KYS0805",
        "name": "KYS0805"
      }
    }
  ]
}