{
  "type": "FeatureCollection",
  "features": [
    {
      "type": "Feature",
      "geometry": {
        "type": "Polygon",
        "coordinates": [
          [
            [
              34.260975,
              31.355217
            ],
            [
              34.260386,
              31.354795
            ],
            [
              34.260048,
              31.354254
            ],
            [
              34.259914,
              31.354058
            ],
            [
              34.259856,
              31.353982
            ],
            [
              34.260236,
              31.353724
            ],
            [
              34.259873,
              31.353368
            ],
            [
              34.260442,
              31.35274
            ],
            [
              34.26056,
              31.352825
            ],
            [
              34.260732,
              31.352996
            ],
            [
              34.260832,
              31.353076
            ],
            [
              34.260945,
              31.353126
            ],
            [
              34.261064,
              31.353203
            ],
            [
              34.261115,
              31.353232
            ],
            [
              34.261184,
              31.353292
            ],
            [
              34.261266,
              31.353351
            ],
            [
              34.26138,
              31.353352
            ],
            [
              34.261506,
              31.353477
            ],
            [
              34.261613,
              31.35357
            ],
            [
              34.26173,
              31.353688
            ],
            [
              34.261826,
              31.353771
            ],
            [
              34.261909,
              31.353892
            ],
            [
              34.261993,
              31.35397
            ],
            [
              34.262092,
              31.354066
            ],
            [
              34.262136,
              31.354122
            ],
            [
              34.262044,
              31.354255
            ],
            [
              34.261964,
              31.354318
            ],
            [
              34.261842,
              31.354393
            ],
            [
              34.261756,
              31.354483
            ],
            [
              34.261679,
              31.354538
            ],
            [
              34.261565,
              31.354693
            ],
            [
              34.261443,
              31.35477
            ],
            [
              34.261433,
              31.354835
            ],
            [
              34.261284,
              31.354998
            ],
            [
              34.260975,
              31.355217
            ]
          ]
        ]
      },
      "properties": {
        "site_code": "KYS1724",
        "name": "KYS1724",
        "description": "Al- Wafaa    <br>       <br>   OID   20    <br>   Name   Al- Wafaa    <br>   FolderPath   Sites_for_GFM    <br>   SymbolID   0    <br>   AltMode   0    <br>   Base   0    <br>   Clamped   -1    <br>   Extruded   0    <br>   Snippet       <br>   PopupInfo   Al- Wafaa    <br>       <br>   SHAPE   Polygon    <br>   Name   Al- Wafaa    <br>   Area       <br>   Site Code   KYS1724    <br>   SHAPE_Length   0.007368    <br>   SHAPE_Area   0.000003"
      }
    }
  ]
}