{
  "type": "FeatureCollection",
  "features": [
    {
      "type": "Feature",
      "geometry": {
        "type": "Polygon",
        "coordinates": [
          [
            [
              34.265589,
              31.362119,
              0
            ],
            [
              34.266475,
              31.361235,
              0
            ],
            [
              34.26702,
              31.3607,
              0
            ],
            [
              34.266432,
              31.360129,
              0
            ],
            [
              34.266948,
              31.359616,
              0
            ],
            [
              34.267455,
              31.360025,
              0
            ],
            [
              34.267276,
              31.360224,
              0
            ],
            [
              34.267314,
              31.360318,
              0
            ],
            [
              34.267402,
              31.360416,
              0
            ],
            [
              34.26748,
              31.360488,
              0
            ],
            [
              34.267639,
              31.360626,
              0
            ],
            [
              34.267767,
              31.360729,
              0
            ],
            [
              34.267793,
              31.36078,
              0
            ],
            [
              34.267824,
              31.360866,
              0
            ],
            [
              34.267662,
              31.360994,
              0
            ],
            [
              34.267607,
              31.361111,
              0
            ],
            [
              34.267582,
              31.361178,
              0
            ],
            [
              34.267604,
              31.36126,
              0
            ],
            [
              34.267481,
              31.361389,
              0
            ],
            [
              34.267409,
              31.361473,
              0
            ],
            [
              34.267304,
              31.361573,
              0
            ],
            [
              34.267192,
              31.36168,
              0
            ],
            [
              34.267014,
              31.361858,
              0
            ],
            [
              34.266969,
              31.36193,
              0
            ],
            [
              34.266926,
              31.362026,
              0
            ],
            [
              34.266832,
              31.36212,
              0
            ],
            [
              34.266768,
              31.362212,
              0
            ],
            [
              34.266667,
              31.362339,
              0
            ],
            [
              34.266589,
              31.362428,
              0
            ],
            [
              34.266535,
              31.362483,
              0
            ],
            [
              34.266478,
              31.362563,
              0
            ],
            [
              34.266416,
              31.362625,
              0
            ],
            [
              34.266189,
              31.362518,
              0
            ],
            [
              34.26612,
              31.362481,
              0
            ],
            [
              34.266077,
              31.36244,
              0
            ],
            [
              34.266026,
              31.362416,
              0
            ],
            [
              34.265983,
              31.362377,
              0
            ],
            [
              34.26595,
              31.36235,
              0
            ],
            [
              34.26583,
              31.36228,
              0
            ],
            [
              34.265759,
              31.362254,
              0
            ],
            [
              34.265614,
              31.362219,
              0
            ],
            [
              34.265589,
              31.362119,
              0
            ]
          ]
        ]
      },
      "properties": {
        "site_code": "KYS1933",
        "name": "KYS1933"
      }
    }
  ]
}