{
  "type": "FeatureCollection",
  "features": [
    {
      "type": "Feature",
      "geometry": {
        "type": "Polygon",
        "coordinates": [
          [
            [
              34.264296,
              31.351808
            ],
            [
              34.263581,
              31.352135
            ],
            [
              34.263162,
              31.351866
            ],
            [
              34.262934,
              31.351905
            ],
            [
              34.262421,
              31.351223
            ],
            [
              34.262218,
              31.350992
            ],
            [
              34.262625,
              31.350685
            ],
            [
              34.262958,
              31.350443
            ],
            [
              34.263392,
              31.350121
            ],
            [
              34.263758,
              31.35049
            ],
            [
              34.26403,
              31.350755
            ],
            [
              34.264194,
              31.351111
            ],
            [
              34.264419,
              31.351834
            ],
            [
              34.264296,
              31.351808
            ]
          ]
        ]
      },
      "properties": {
        "site_code": "Al-Zahraa",
        "name": "Al-Zahraa",
        "description": ""
      }
    }
  ]
}