{
  "type": "FeatureCollection",
  "features": [
    {
      "type": "Feature",
      "geometry": {
        "type": "Polygon",
        "coordinates": [
          [
            [
              34.266532,
              31.351439
            ],
            [
              34.266143,
              31.351615
            ],
            [
              34.264995,
              31.351619
            ],
            [
              34.265036,
              31.351953
            ],
            [
              34.264574,
              31.351835
            ],
            [
              34.264416,
              31.351815
            ],
            [
              34.264188,
              31.35109
            ],
            [
              34.26403,
              31.350755
            ],
            [
              34.26416,
              31.350578
            ],
            [
              34.264276,
              31.350476
            ],
            [
              34.264388,
              31.350197
            ],
            [
              34.264575,
              31.349924
            ],
            [
              34.26485,
              31.349757
            ],
            [
              34.264862,
              31.349735
            ],
            [
              34.265292,
              31.350181
            ],
            [
              34.265798,
              31.350754
            ],
            [
              34.266532,
              31.351439
            ]
          ]
        ]
      },
      "properties": {
        "site_code": "Arada",
        "name": "Arada",
        "description": "‏‏"
      }
    }
  ]
}