{
  "type": "FeatureCollection",
  "features": [
    {
      "type": "Feature",
      "geometry": {
        "type": "Polygon",
        "coordinates": [
          [
            [
              34.455578,
              31.5140511,
              0
            ],
            [
              34.4552132,
              31.5143861,
              0
            ],
            [
              34.4543817,
              31.5137504,
              0
            ],
            [
              34.4547974,
              31.5133877,
              0
            ],
            [
              34.455578,
              31.5140511,
              0
            ]
          ]
        ]
      },
      "properties": {
        "site_code": "GZA4726",
        "name": "GZA4726"
      }
    }
  ]
}