{
  "type": "FeatureCollection",
  "features": [
    {
      "type": "Feature",
      "geometry": {
        "type": "Polygon",
        "coordinates": [
          [
            [
              34.4604969,
              31.5225772,
              0
            ],
            [
              34.4614786,
              31.5217495,
              0
            ],
            [
              34.4615162,
              31.5217907,
              0
            ],
            [
              34.4616932,
              31.5219324,
              0
            ],
            [
              34.4621706,
              31.5222662,
              0
            ],
            [
              34.4631899,
              31.5226001,
              0
            ],
            [
              34.4629353,
              31.5229021,
              0
            ],
            [
              34.4619399,
              31.5237661,
              0
            ],
            [
              34.460979,
              31.5229754,
              0
            ],
            [
              34.4604969,
              31.5225772,
              0
            ]
          ]
        ]
      },
      "properties": {
        "site_code": "GZA4838",
        "name": "GZA4838"
      }
    }
  ]
}