{
  "type": "FeatureCollection",
  "features": [
    {
      "type": "Feature",
      "geometry": {
        "type": "Polygon",
        "coordinates": [
          [
            [
              34.450772,
              31.52287,
              0
            ],
            [
              34.450649,
              31.523002,
              0
            ],
            [
              34.449679,
              31.523325,
              0
            ],
            [
              34.44955,
              31.523097,
              0
            ],
            [
              34.450157,
              31.522588,
              0
            ],
            [
              34.449861,
              31.5224,
              0
            ],
            [
              34.450035,
              31.52227,
              0
            ],
            [
              34.450772,
              31.52287,
              0
            ]
          ]
        ]
      },
      "properties": {
        "site_code": "GZA4817",
        "name": "GZA4817"
      }
    }
  ]
}