{
  "type": "FeatureCollection",
  "features": [
    {
      "type": "Feature",
      "geometry": {
        "type": "Polygon",
        "coordinates": [
          [
            [
              34.4517816,
              31.524176,
              0
            ],
            [
              34.4524267,
              31.5235952,
              0
            ],
            [
              34.4530691,
              31.5230487,
              0
            ],
            [
              34.4535653,
              31.5234786,
              0
            ],
            [
              34.452825,
              31.5240925,
              0
            ],
            [
              34.4531066,
              31.5243337,
              0
            ],
            [
              34.4524924,
              31.5248138,
              0
            ],
            [
              34.4517816,
              31.524176,
              0
            ]
          ]
        ]
      },
      "properties": {
        "site_code": "GZA4123",
        "name": "GZA4123"
      }
    }
  ]
}