{
  "type": "FeatureCollection",
  "features": [
    {
      "type": "Feature",
      "geometry": {
        "type": "Polygon",
        "coordinates": [
          [
            [
              34.4645731,
              31.5301206,
              0
            ],
            [
              34.463839,
              31.530653,
              0
            ],
            [
              34.462382,
              31.529526,
              0
            ],
            [
              34.463097,
              31.528949,
              0
            ],
            [
              34.4645731,
              31.5301206,
              0
            ]
          ]
        ]
      },
      "properties": {
        "site_code": "GZA5444",
        "name": "GZA5444"
      }
    }
  ]
}