{
  "type": "FeatureCollection",
  "features": [
    {
      "type": "Feature",
      "geometry": {
        "type": "Polygon",
        "coordinates": [
          [
            [
              34.4667616,
              31.5301929,
              0
            ],
            [
              34.4657302,
              31.5310098,
              0
            ],
            [
              34.463798,
              31.5295099,
              0
            ],
            [
              34.4652399,
              31.5288686,
              0
            ],
            [
              34.4667616,
              31.5301929,
              0
            ]
          ]
        ]
      },
      "properties": {
        "site_code": "GZA5031",
        "name": "GZA5031"
      }
    }
  ]
}