{
  "type": "FeatureCollection",
  "features": [
    {
      "type": "Feature",
      "geometry": {
        "type": "Polygon",
        "coordinates": [
          [
            [
              34.4561082,
              31.5256298,
              0
            ],
            [
              34.4558132,
              31.525879,
              0
            ],
            [
              34.454346,
              31.5246581,
              0
            ],
            [
              34.454633,
              31.5243563,
              0
            ],
            [
              34.4561082,
              31.5256298,
              0
            ]
          ]
        ]
      },
      "properties": {
        "site_code": "GZA5220",
        "name": "GZA5220"
      }
    }
  ]
}