{
  "type": "FeatureCollection",
  "features": [
    {
      "type": "Feature",
      "geometry": {
        "type": "Polygon",
        "coordinates": [
          [
            [
              34.4563435,
              31.5226115,
              0
            ],
            [
              34.4565401,
              31.5224549,
              0
            ],
            [
              34.456643,
              31.5225263,
              0
            ],
            [
              34.4566756,
              31.5225757,
              0
            ],
            [
              34.4567029,
              31.5226251,
              0
            ],
            [
              34.4567472,
              31.5227281,
              0
            ],
            [
              34.4567834,
              31.5228081,
              0
            ],
            [
              34.4568236,
              31.5229064,
              0
            ],
            [
              34.4567914,
              31.5230985,
              0
            ],
            [
              34.4567338,
              31.5232265,
              0
            ],
            [
              34.4566118,
              31.523334,
              0
            ],
            [
              34.456541,
              31.5233311,
              0
            ],
            [
              34.4564811,
              31.5233031,
              0
            ],
            [
              34.4564159,
              31.5232471,
              0
            ],
            [
              34.4563596,
              31.5231259,
              0
            ],
            [
              34.4563596,
              31.522999,
              0
            ],
            [
              34.456369,
              31.5228949,
              0
            ],
            [
              34.4563529,
              31.5227464,
              0
            ],
            [
              34.4563435,
              31.5226115,
              0
            ]
          ]
        ]
      },
      "properties": {
        "site_code": "GZA6009",
        "name": "GZA6009"
      }
    }
  ]
}