{
  "type": "FeatureCollection",
  "features": [
    {
      "type": "Feature",
      "geometry": {
        "type": "Polygon",
        "coordinates": [
          [
            [
              34.269961,
              31.356789,
              0
            ],
            [
              34.269198,
              31.357311,
              0
            ],
            [
              34.269051,
              31.357433,
              0
            ],
            [
              34.268352,
              31.357402,
              0
            ],
            [
              34.2679,
              31.35779,
              0
            ],
            [
              34.267225,
              31.357366,
              0
            ],
            [
              34.266229,
              31.356697,
              0
            ],
            [
              34.266614,
              31.356281,
              0
            ],
            [
              34.266946,
              31.355673,
              0
            ],
            [
              34.267449,
              31.355257,
              0
            ],
            [
              34.268618,
              31.356136,
              0
            ],
            [
              34.269078,
              31.356748,
              0
            ],
            [
              34.269628,
              31.356402,
              0
            ],
            [
              34.269961,
              31.356789,
              0
            ]
          ]
        ]
      },
      "properties": {
        "site_code": "KYS0947",
        "name": "KYS0947"
      }
    }
  ]
}