{
  "type": "FeatureCollection",
  "features": [
    {
      "type": "Feature",
      "geometry": {
        "type": "Polygon",
        "coordinates": [
          [
            [
              34.265445,
              31.359218,
              0
            ],
            [
              34.265524,
              31.359124,
              0
            ],
            [
              34.265651,
              31.359003,
              0
            ],
            [
              34.265807,
              31.358824,
              0
            ],
            [
              34.265892,
              31.358851,
              0
            ],
            [
              34.266178,
              31.359055,
              0
            ],
            [
              34.266498,
              31.35926,
              0
            ],
            [
              34.266834,
              31.359522,
              0
            ],
            [
              34.266937,
              31.3596,
              0
            ],
            [
              34.266923,
              31.359662,
              0
            ],
            [
              34.266395,
              31.360152,
              0
            ],
            [
              34.265792,
              31.359889,
              0
            ],
            [
              34.266107,
              31.359563,
              0
            ],
            [
              34.265445,
              31.359218,
              0
            ]
          ]
        ]
      },
      "properties": {
        "site_code": "KYS1926",
        "name": "KYS1926"
      }
    }
  ]
}