{
  "type": "FeatureCollection",
  "features": [
    {
      "type": "Feature",
      "geometry": {
        "type": "Polygon",
        "coordinates": [
          [
            [
              34.262676,
              31.34777
            ],
            [
              34.262821,
              31.347719
            ],
            [
              34.263668,
              31.348608
            ],
            [
              34.263301,
              31.348831
            ],
            [
              34.262956,
              31.348997
            ],
            [
              34.262618,
              31.349118
            ],
            [
              34.261924,
              31.349505
            ],
            [
              34.261502,
              31.3498
            ],
            [
              34.260861,
              31.349567
            ],
            [
              34.259866,
              31.349652
            ],
            [
              34.25998,
              31.349468
            ],
            [
              34.26047,
              31.349111
            ],
            [
              34.260863,
              31.348924
            ],
            [
              34.261474,
              31.348564
            ],
            [
              34.261759,
              31.348373
            ],
            [
              34.261981,
              31.348216
            ],
            [
              34.262333,
              31.348021
            ],
            [
              34.262483,
              31.347897
            ],
            [
              34.262676,
              31.34777
            ]
          ]
        ]
      },
      "properties": {
        "site_code": "Al-Amoody",
        "name": "Al-Amoody",
        "description": ""
      }
    }
  ]
}