{
  "type": "FeatureCollection",
  "features": [
    {
      "type": "Feature",
      "geometry": {
        "type": "Polygon",
        "coordinates": [
          [
            [
              34.4549945,
              31.5236852,
              0
            ],
            [
              34.4544527,
              31.5240739,
              0
            ],
            [
              34.4536297,
              31.5234065,
              0
            ],
            [
              34.4543561,
              31.5228392,
              0
            ],
            [
              34.4546941,
              31.5230816,
              0
            ],
            [
              34.4547638,
              31.5232508,
              0
            ],
            [
              34.4549301,
              31.5235709,
              0
            ],
            [
              34.4549945,
              31.5236852,
              0
            ]
          ]
        ]
      },
      "properties": {
        "site_code": "GZA4962",
        "name": "GZA4962"
      }
    }
  ]
}