{
  "type": "FeatureCollection",
  "features": [
    {
      "type": "Feature",
      "geometry": {
        "type": "Polygon",
        "coordinates": [
          [
            [
              34.450968,
              31.5211455,
              0
            ],
            [
              34.4503056,
              31.5217664,
              0
            ],
            [
              34.4496511,
              31.5212416,
              0
            ],
            [
              34.4504021,
              31.5206677,
              0
            ],
            [
              34.450968,
              31.5211455,
              0
            ]
          ]
        ]
      },
      "properties": {
        "site_code": "GZA4124",
        "name": "GZA4124"
      }
    }
  ]
}