{
  "type": "FeatureCollection",
  "features": [
    {
      "type": "Feature",
      "geometry": {
        "type": "Polygon",
        "coordinates": [
          [
            [
              34.4562872,
              31.5180311,
              0
            ],
            [
              34.4563623,
              31.5180814,
              0
            ],
            [
              34.4558849,
              31.5185844,
              0
            ],
            [
              34.4543346,
              31.5172399,
              0
            ],
            [
              34.4547584,
              31.5168604,
              0
            ],
            [
              34.4562872,
              31.5180311,
              0
            ]
          ]
        ]
      },
      "properties": {
        "site_code": "GZA4441",
        "name": "GZA4441"
      }
    }
  ]
}