{
  "type": "FeatureCollection",
  "features": [
    {
      "type": "Feature",
      "geometry": {
        "type": "Polygon",
        "coordinates": [
          [
            [
              34.450778,
              31.5207582,
              0
            ],
            [
              34.4523671,
              31.5218521,
              0
            ],
            [
              34.452673,
              31.5216382,
              0
            ],
            [
              34.4529144,
              31.5218165,
              0
            ],
            [
              34.4515787,
              31.5230923,
              0
            ],
            [
              34.4501786,
              31.5218897,
              0
            ],
            [
              34.4509135,
              31.5211809,
              0
            ],
            [
              34.4511549,
              31.5213455,
              0
            ],
            [
              34.450479,
              31.5219217,
              0
            ],
            [
              34.4514714,
              31.5228134,
              0
            ],
            [
              34.4522492,
              31.5221549,
              0
            ],
            [
              34.4511871,
              31.521341,
              0
            ],
            [
              34.4505863,
              31.5209568,
              0
            ],
            [
              34.450778,
              31.5207582,
              0
            ]
          ]
        ]
      },
      "properties": {
        "site_code": "GZA6027",
        "name": "GZA6027"
      }
    }
  ]
}