{
  "type": "FeatureCollection",
  "features": [
    {
      "type": "Feature",
      "geometry": {
        "type": "Polygon",
        "coordinates": [
          [
            [
              34.265589,
              31.362119,
              0
            ],
            [
              34.264714,
              31.360986,
              0
            ],
            [
              34.265792,
              31.359889,
              0
            ],
            [
              34.266453,
              31.360177,
              0
            ],
            [
              34.26702,
              31.3607,
              0
            ],
            [
              34.266475,
              31.361235,
              0
            ],
            [
              34.265589,
              31.362119,
              0
            ]
          ]
        ]
      },
      "properties": {
        "site_code": "KYS1711",
        "name": "KYS1711"
      }
    }
  ]
}