{
  "type": "FeatureCollection",
  "features": [
    {
      "type": "Feature",
      "geometry": {
        "type": "Polygon",
        "coordinates": [
          [
            [
              34.259055,
              31.356731
            ],
            [
              34.257891,
              31.355741
            ],
            [
              34.258385,
              31.355237
            ],
            [
              34.257868,
              31.354759
            ],
            [
              34.258274,
              31.354351
            ],
            [
              34.259002,
              31.353854
            ],
            [
              34.259257,
              31.354148
            ],
            [
              34.259427,
              31.354103
            ],
            [
              34.259659,
              31.35404
            ],
            [
              34.259856,
              31.353982
            ],
            [
              34.259914,
              31.354058
            ],
            [
              34.259987,
              31.354148
            ],
            [
              34.260093,
              31.354331
            ],
            [
              34.260263,
              31.354585
            ],
            [
              34.260386,
              31.354795
            ],
            [
              34.260674,
              31.355013
            ],
            [
              34.260816,
              31.355109
            ],
            [
              34.260975,
              31.355217
            ],
            [
              34.260856,
              31.355392
            ],
            [
              34.260751,
              31.355507
            ],
            [
              34.260365,
              31.355854
            ],
            [
              34.260159,
              31.356023
            ],
            [
              34.260041,
              31.356141
            ],
            [
              34.259905,
              31.356276
            ],
            [
              34.259828,
              31.356303
            ],
            [
              34.259601,
              31.356184
            ],
            [
              34.259443,
              31.356328
            ],
            [
              34.259244,
              31.356555
            ],
            [
              34.259055,
              31.356731
            ]
          ]
        ]
      },
      "properties": {
        "site_code": "KYS2033",
        "name": "KYS2033",
        "description": "Al-Joura Camp    <br>       <br>   OID   1    <br>   Name   Al-Joura Camp    <br>   FolderPath   Sites_for_GFM    <br>   SymbolID   0    <br>   AltMode   0    <br>   Base   0    <br>   Clamped   -1    <br>   Extruded   0    <br>   Snippet       <br>   PopupInfo   Al-Joura Camp    <br>       <br>   SHAPE   Polygon    <br>   Name   Al-Joura Camp    <br>   Area       <br>   Site Code   KYS2033    <br>   SHAPE_Length   0.011595    <br>   SHAPE_Area   0.000008"
      }
    }
  ]
}