{
  "type": "FeatureCollection",
  "features": [
    {
      "type": "Feature",
      "geometry": {
        "type": "Polygon",
        "coordinates": [
          [
            [
              34.459493,
              31.535712,
              0
            ],
            [
              34.459805,
              31.536075,
              0
            ],
            [
              34.459383,
              31.536423,
              0
            ],
            [
              34.4590636,
              31.5363671,
              0
            ],
            [
              34.4588087,
              31.5365214,
              0
            ],
            [
              34.4584017,
              31.5361243,
              0
            ],
            [
              34.458558,
              31.535878,
              0
            ],
            [
              34.45905,
              31.535377,
              0
            ],
            [
              34.459493,
              31.535712,
              0
            ]
          ]
        ]
      },
      "properties": {
        "site_code": "KYS5287",
        "name": "KYS5287"
      }
    }
  ]
}