{
  "type": "FeatureCollection",
  "features": [
    {
      "type": "Feature",
      "geometry": {
        "type": "Polygon",
        "coordinates": [
          [
            [
              34.263499,
              31.355164
            ],
            [
              34.263282,
              31.355417
            ],
            [
              34.263032,
              31.355251
            ],
            [
              34.262481,
              31.354916
            ],
            [
              34.262167,
              31.354726
            ],
            [
              34.262474,
              31.354558
            ],
            [
              34.262987,
              31.354846
            ],
            [
              34.263499,
              31.355164
            ]
          ]
        ]
      },
      "properties": {
        "site_code": "KYS1725",
        "name": "KYS1725",
        "description": "Ghawar    <br>       <br>   OID   10    <br>   Name   Ghawar    <br>   FolderPath   Sites_for_GFM    <br>   SymbolID   0    <br>   AltMode   0    <br>   Base   0    <br>   Clamped   -1    <br>   Extruded   0    <br>   Snippet       <br>   PopupInfo   Ghawar    <br>       <br>   SHAPE   Polygon    <br>   Name   Ghawar    <br>   Area       <br>   Site Code   KYS1725    <br>   SHAPE_Length   0.003186    <br>   SHAPE_Area   0"
      }
    }
  ]
}