{
  "type": "FeatureCollection",
  "features": [
    {
      "type": "Feature",
      "geometry": {
        "type": "Polygon",
        "coordinates": [
          [
            [
              34.263145,
              31.353435
            ],
            [
              34.263218,
              31.353525
            ],
            [
              34.263052,
              31.353637
            ],
            [
              34.262917,
              31.353686
            ],
            [
              34.262753,
              31.353766
            ],
            [
              34.262484,
              31.353896
            ],
            [
              34.262411,
              31.353987
            ],
            [
              34.262306,
              31.354066
            ],
            [
              34.2622,
              31.354138
            ],
            [
              34.262115,
              31.354124
            ],
            [
              34.261347,
              31.353371
            ],
            [
              34.26127,
              31.353376
            ],
            [
              34.261189,
              31.353289
            ],
            [
              34.261015,
              31.353171
            ],
            [
              34.260889,
              31.353101
            ],
            [
              34.261154,
              31.352784
            ],
            [
              34.261683,
              31.352274
            ],
            [
              34.261786,
              31.352366
            ],
            [
              34.261942,
              31.352505
            ],
            [
              34.262009,
              31.352565
            ],
            [
              34.262156,
              31.352695
            ],
            [
              34.262319,
              31.352826
            ],
            [
              34.262493,
              31.352954
            ],
            [
              34.262714,
              31.353117
            ],
            [
              34.262907,
              31.353259
            ],
            [
              34.263145,
              31.353435
            ]
          ]
        ]
      },
      "properties": {
        "site_code": "KYS2035",
        "name": "KYS2035",
        "description": "Al-Amal and Al-Haya    <br>       <br>   OID   17    <br>   Name   Al-Amal and Al-Haya    <br>   FolderPath   Sites_for_GFM    <br>   SymbolID   0    <br>   AltMode   0    <br>   Base   0    <br>   Clamped   -1    <br>   Extruded   0    <br>   Snippet       <br>   PopupInfo   Al-Amal and Al-Haya    <br>       <br>   SHAPE   Polygon    <br>   Name   Al-Amal and Al-Haya    <br>   Area       <br>   Site Code   KYS2035    <br>   SHAPE_Length   0.00615    <br>   SHAPE_Area   0.000002"
      }
    }
  ]
}