{
  "type": "FeatureCollection",
  "features": [
    {
      "type": "Feature",
      "geometry": {
        "type": "Polygon",
        "coordinates": [
          [
            [
              34.266532,
              31.351439
            ],
            [
              34.267231,
              31.352145
            ],
            [
              34.266762,
              31.352418
            ],
            [
              34.266502,
              31.352547
            ],
            [
              34.26636,
              31.352607
            ],
            [
              34.265817,
              31.352811
            ],
            [
              34.265387,
              31.352973
            ],
            [
              34.265229,
              31.352613
            ],
            [
              34.264877,
              31.352707
            ],
            [
              34.26475,
              31.352768
            ],
            [
              34.264494,
              31.352848
            ],
            [
              34.264618,
              31.353318
            ],
            [
              34.26446,
              31.35341
            ],
            [
              34.26422,
              31.353487
            ],
            [
              34.263743,
              31.353001
            ],
            [
              34.264047,
              31.352864
            ],
            [
              34.263581,
              31.352135
            ],
            [
              34.264296,
              31.351808
            ],
            [
              34.264548,
              31.351824
            ],
            [
              34.265036,
              31.351953
            ],
            [
              34.264995,
              31.351619
            ],
            [
              34.266143,
              31.351615
            ],
            [
              34.266532,
              31.351439
            ]
          ]
        ]
      },
      "properties": {
        "site_code": "KYS0811",
        "name": "KYS0811",
        "description": "Ard Al-Jawafa    <br>       <br>   OID   14    <br>   Name   Ard Al-Jawafa    <br>   FolderPath   Sites_for_GFM    <br>   SymbolID   0    <br>   AltMode   0    <br>   Base   0    <br>   Clamped   -1    <br>   Extruded   0    <br>   Snippet       <br>   PopupInfo   Ard Al-Jawafa    <br>       <br>   SHAPE   Polygon    <br>   Name   Ard Al-Jawafa    <br>   Area       <br>   Site Code   KYS0811    <br>   SHAPE_Length   0.009591    <br>   SHAPE_Area   0.000003"
      }
    }
  ]
}