{
  "type": "FeatureCollection",
  "features": [
    {
      "type": "Feature",
      "geometry": {
        "type": "Polygon",
        "coordinates": [
          [
            [
              34.266971,
              31.355626
            ],
            [
              34.266655,
              31.356217
            ],
            [
              34.266317,
              31.356623
            ],
            [
              34.265859,
              31.356445
            ],
            [
              34.264878,
              31.356264
            ],
            [
              34.264534,
              31.356148
            ],
            [
              34.264095,
              31.356339
            ],
            [
              34.263358,
              31.356086
            ],
            [
              34.263331,
              31.356056
            ],
            [
              34.263761,
              31.355747
            ],
            [
              34.263788,
              31.355346
            ],
            [
              34.264151,
              31.354986
            ],
            [
              34.264721,
              31.354628
            ],
            [
              34.265217,
              31.354517
            ],
            [
              34.265648,
              31.354425
            ],
            [
              34.265658,
              31.35448
            ],
            [
              34.266049,
              31.355021
            ],
            [
              34.266145,
              31.355037
            ],
            [
              34.266293,
              31.355171
            ],
            [
              34.266533,
              31.355367
            ],
            [
              34.266706,
              31.355441
            ],
            [
              34.266936,
              31.355543
            ],
            [
              34.266971,
              31.355626
            ]
          ]
        ]
      },
      "properties": {
        "site_code": "KYS1923",
        "name": "KYS1923",
        "description": "Al Amal camp MA    <br>       <br>   OID   3    <br>   Name   Al Amal camp MA    <br>   FolderPath   Sites_for_GFM    <br>   SymbolID   0    <br>   AltMode   0    <br>   Base   0    <br>   Clamped   -1    <br>   Extruded   0    <br>   Snippet       <br>   PopupInfo   Al Amal camp MA    <br>       <br>   SHAPE   Polygon    <br>   Name   Al Amal camp MA    <br>   Area       <br>   Site Code   KYS1923    <br>   SHAPE_Length   0.009223    <br>   SHAPE_Area   0.000005"
      }
    }
  ]
}