{
"type": "FeatureCollection",
"name": "IOM Selected Sites",
"crs": { "type": "name", "properties": { "name": "urn:ogc:def:crs:OGC:1.3:CRS84" } },
"features": [
{ "type": "Feature", "properties": { "id": null, "Name": "GZA5220", "description": "Site Name: Al-Rageen<br>الوصف: <br>y: <br>x: <br>Site code: ", "timestamp": null, "begin": null, "end": null, "altitudeMode": null, "tessellate": -1, "extrude": 0, "visibility": -1, "drawOrder": null, "icon": null, "Site_Name": "Al-Rageen", "__________": "", "y": "", "x": "", "Site_code": "" }, "geometry": { "type": "Polygon", "coordinates": [ [ [ 34.4561082, 31.5256298, 0.0 ], [ 34.4558132, 31.525879, 0.0 ], [ 34.454346, 31.5246581, 0.0 ], [ 34.454633, 31.5243563, 0.0 ], [ 34.4561082, 31.5256298, 0.0 ] ] ] } },
{ "type": "Feature", "properties": { "id": null, "Name": "GZA4388", "description": "Site Name: Ministry of Labor<br>الوصف: <br>y: <br>x: <br>Site code: ", "timestamp": null, "begin": null, "end": null, "altitudeMode": null, "tessellate": -1, "extrude": 0, "visibility": -1, "drawOrder": null, "icon": null, "Site_Name": "Ministry of Labor", "__________": "", "y": "", "x": "", "Site_code": "" }, "geometry": { "type": "Polygon", "coordinates": [ [ [ 34.4499696, 31.5208416, 0.0 ], [ 34.4497157, 31.5210717, 0.0 ], [ 34.4494825, 31.520871, 0.0 ], [ 34.4496946, 31.5206263, 0.0 ], [ 34.4499696, 31.5208416, 0.0 ] ] ] } },
{ "type": "Feature", "properties": { "id": null, "Name": "GZA6027‏", "description": "Site Name: Al-Salam Site<br>الوصف: <br>y: <br>x: <br>Site code: ", "timestamp": null, "begin": null, "end": null, "altitudeMode": null, "tessellate": -1, "extrude": 0, "visibility": -1, "drawOrder": null, "icon": null, "Site_Name": "Al-Salam Site", "__________": "", "y": "", "x": "", "Site_code": "" }, "geometry": { "type": "Polygon", "coordinates": [ [ [ 34.450778, 31.5207582, 0.0 ], [ 34.4523671, 31.5218521, 0.0 ], [ 34.452673, 31.5216382, 0.0 ], [ 34.4529144, 31.5218165, 0.0 ], [ 34.4515787, 31.5230923, 0.0 ], [ 34.4501786, 31.5218897, 0.0 ], [ 34.4509135, 31.5211809, 0.0 ], [ 34.4511549, 31.5213455, 0.0 ], [ 34.450479, 31.5219217, 0.0 ], [ 34.4514714, 31.5228134, 0.0 ], [ 34.4522492, 31.5221549, 0.0 ], [ 34.4511871, 31.521341, 0.0 ], [ 34.4505863, 31.5209568, 0.0 ], [ 34.450778, 31.5207582, 0.0 ] ] ] } },
{ "type": "Feature", "properties": { "id": null, "Name": "GZA2136‏", "description": "Site Name: Al-Mu'tasim Billah Shelter Center<br>الوصف: <br>y: <br>x: <br>Site code: ", "timestamp": null, "begin": null, "end": null, "altitudeMode": null, "tessellate": -1, "extrude": 0, "visibility": -1, "drawOrder": null, "icon": null, "Site_Name": "Al-Mu'tasim Billah Shelter Center", "__________": "", "y": "", "x": "", "Site_code": "" }, "geometry": { "type": "Polygon", "coordinates": [ [ [ 34.4561031, 31.5160753, 0.0 ], [ 34.4554638, 31.5165433, 0.0 ], [ 34.4547388, 31.5159058, 0.0 ], [ 34.4553405, 31.5154458, 0.0 ], [ 34.4561031, 31.5160753, 0.0 ] ] ] } },
{ "type": "Feature", "properties": { "id": null, "Name": "6009‏ GZA", "description": "Site Name: Atfalouna<br>الوصف: <br>y: <br>x: <br>Site code: ", "timestamp": null, "begin": null, "end": null, "altitudeMode": null, "tessellate": -1, "extrude": 0, "visibility": -1, "drawOrder": null, "icon": null, "Site_Name": "Atfalouna", "__________": "", "y": "", "x": "", "Site_code": "" }, "geometry": { "type": "Polygon", "coordinates": [ [ [ 34.4563435, 31.5226115, 0.0 ], [ 34.4565401, 31.5224549, 0.0 ], [ 34.456643, 31.5225263, 0.0 ], [ 34.4566756, 31.5225757, 0.0 ], [ 34.4567029, 31.5226251, 0.0 ], [ 34.4567472, 31.5227281, 0.0 ], [ 34.4567834, 31.5228081, 0.0 ], [ 34.4568236, 31.5229064, 0.0 ], [ 34.4567914, 31.5230985, 0.0 ], [ 34.4567338, 31.5232265, 0.0 ], [ 34.4566118, 31.523334, 0.0 ], [ 34.456541, 31.5233311, 0.0 ], [ 34.4564811, 31.5233031, 0.0 ], [ 34.4564159, 31.5232471, 0.0 ], [ 34.4563596, 31.5231259, 0.0 ], [ 34.4563596, 31.522999, 0.0 ], [ 34.456369, 31.5228949, 0.0 ], [ 34.4563529, 31.5227464, 0.0 ], [ 34.4563435, 31.5226115, 0.0 ] ] ] } },
{ "type": "Feature", "properties": { "id": null, "Name": "GZA4353", "description": "Site Name: Al-Majida School Wasila Bani Ammar<br>الوصف: <br>y: <br>x: <br>Site code: ", "timestamp": null, "begin": null, "end": null, "altitudeMode": null, "tessellate": -1, "extrude": 0, "visibility": -1, "drawOrder": null, "icon": null, "Site_Name": "Al-Majida School Wasila Bani Ammar", "__________": "", "y": "", "x": "", "Site_code": "" }, "geometry": { "type": "Polygon", "coordinates": [ [ [ 34.458525, 31.5230008, 0.0 ], [ 34.4578148, 31.5235899, 0.0 ], [ 34.457163, 31.5229611, 0.0 ], [ 34.4578035, 31.5224268, 0.0 ], [ 34.458525, 31.5230008, 0.0 ] ] ] } },
{ "type": "Feature", "properties": { "id": null, "Name": "GZA4838", "description": "Site Name: Haratuna Site<br>الوصف: <br>y: <br>x: <br>Site code: ", "timestamp": null, "begin": null, "end": null, "altitudeMode": null, "tessellate": -1, "extrude": 0, "visibility": -1, "drawOrder": null, "icon": null, "Site_Name": "Haratuna Site", "__________": "", "y": "", "x": "", "Site_code": "" }, "geometry": { "type": "Polygon", "coordinates": [ [ [ 34.4604969, 31.5225772, 0.0 ], [ 34.4614786, 31.5217495, 0.0 ], [ 34.4615162, 31.5217907, 0.0 ], [ 34.4616932, 31.5219324, 0.0 ], [ 34.4621706, 31.5222662, 0.0 ], [ 34.4631899, 31.5226001, 0.0 ], [ 34.4629353, 31.5229021, 0.0 ], [ 34.4619399, 31.5237661, 0.0 ], [ 34.460979, 31.5229754, 0.0 ], [ 34.4604969, 31.5225772, 0.0 ] ] ] } },
{ "type": "Feature", "properties": { "id": null, "Name": "GZA6018", "description": "Site Name: Al-Jawad Site<br>الوصف: <br>y: <br>x: <br>Site code: ", "timestamp": null, "begin": null, "end": null, "altitudeMode": null, "tessellate": -1, "extrude": 0, "visibility": -1, "drawOrder": null, "icon": null, "Site_Name": "Al-Jawad Site", "__________": "", "y": "", "x": "", "Site_code": "" }, "geometry": { "type": "Polygon", "coordinates": [ [ [ 34.4540867, 31.5166201, 0.0 ], [ 34.4547413, 31.5171619, 0.0 ], [ 34.4534699, 31.5181428, 0.0 ], [ 34.4528879, 31.5176672, 0.0 ], [ 34.4540867, 31.5166201, 0.0 ] ] ] } },
{ "type": "Feature", "properties": { "id": null, "Name": "GZA5443", "description": "Site Name: Nisr Al-Shamali<br>الوصف: <br>y: <br>x: <br>Site code: ", "timestamp": null, "begin": null, "end": null, "altitudeMode": null, "tessellate": -1, "extrude": 0, "visibility": -1, "drawOrder": null, "icon": null, "Site_Name": "Nisr Al-Shamali", "__________": "", "y": "", "x": "", "Site_code": "" }, "geometry": { "type": "Polygon", "coordinates": [ [ [ 34.463347, 31.5302858, 0.0 ], [ 34.463839, 31.530653, 0.0 ], [ 34.4645731, 31.5301206, 0.0 ], [ 34.464781, 31.530284, 0.0 ], [ 34.4640819, 31.5308451, 0.0 ], [ 34.4624492, 31.5322462, 0.0 ], [ 34.461673, 31.5316416, 0.0 ], [ 34.463347, 31.5302858, 0.0 ] ] ] } },
{ "type": "Feature", "properties": { "id": null, "Name": "GZA4817", "description": "Site Name: Al-Rahma Site<br>الوصف: 1 <br> <br> Field <Null> <br> sitecode GZA4817 ‏<br>y: <br>x: <br>Site code: ", "timestamp": null, "begin": null, "end": null, "altitudeMode": null, "tessellate": -1, "extrude": 0, "visibility": -1, "drawOrder": null, "icon": null, "Site_Name": "Al-Rahma Site", "__________": "1 \n \n Field <Null> \n sitecode GZA4817 ‏", "y": "", "x": "", "Site_code": "" }, "geometry": { "type": "Polygon", "coordinates": [ [ [ 34.450772, 31.52287, 0.0 ], [ 34.450649, 31.523002, 0.0 ], [ 34.449679, 31.523325, 0.0 ], [ 34.44955, 31.523097, 0.0 ], [ 34.450157, 31.522588, 0.0 ], [ 34.449861, 31.5224, 0.0 ], [ 34.450035, 31.52227, 0.0 ], [ 34.450772, 31.52287, 0.0 ] ] ] } },
{ "type": "Feature", "properties": { "id": null, "Name": "GZA5444 ", "description": "Site Name: Ahel Al khair<br>الوصف: 2 <br> <br> Field <Null> <br> sitecode GZA5444 ‏<br>y: <br>x: <br>Site code: ", "timestamp": null, "begin": null, "end": null, "altitudeMode": null, "tessellate": -1, "extrude": 0, "visibility": -1, "drawOrder": null, "icon": null, "Site_Name": "Ahel Al khair", "__________": "2 \n \n Field <Null> \n sitecode GZA5444 ‏", "y": "", "x": "", "Site_code": "" }, "geometry": { "type": "Polygon", "coordinates": [ [ [ 34.4645731, 31.5301206, 0.0 ], [ 34.463839, 31.530653, 0.0 ], [ 34.462382, 31.529526, 0.0 ], [ 34.463097, 31.528949, 0.0 ], [ 34.4645731, 31.5301206, 0.0 ] ] ] } },
{ "type": "Feature", "properties": { "id": null, "Name": "GZA5287", "description": "Site Name: Mukhayam Alshabab Walriyda<br>الوصف: 3 <br> <br> Field <Null> <br>‏<br>y: <br>x: <br>Site code: ", "timestamp": null, "begin": null, "end": null, "altitudeMode": null, "tessellate": -1, "extrude": 0, "visibility": -1, "drawOrder": null, "icon": null, "Site_Name": "Mukhayam Alshabab Walriyda", "__________": "3 \n \n Field <Null> \n‏", "y": "", "x": "", "Site_code": "" }, "geometry": { "type": "Polygon", "coordinates": [ [ [ 34.459493, 31.535712, 0.0 ], [ 34.459805, 31.536075, 0.0 ], [ 34.459383, 31.536423, 0.0 ], [ 34.4590636, 31.5363671, 0.0 ], [ 34.4588087, 31.5365214, 0.0 ], [ 34.4584017, 31.5361243, 0.0 ], [ 34.458558, 31.535878, 0.0 ], [ 34.45905, 31.535377, 0.0 ], [ 34.459493, 31.535712, 0.0 ] ] ] } },
{ "type": "Feature", "properties": { "id": null, "Name": "ACT7444 ", "description": "Site Name: An Naser School Site<br>الوصف: 5 <br> <br> Field <Null> <br> sitecode ACT7444 ‏<br>y: <br>x: <br>Site code: ", "timestamp": null, "begin": null, "end": null, "altitudeMode": null, "tessellate": -1, "extrude": 0, "visibility": -1, "drawOrder": null, "icon": null, "Site_Name": "An Naser School Site", "__________": "5 \n \n Field <Null> \n sitecode ACT7444 ‏", "y": "", "x": "", "Site_code": "" }, "geometry": { "type": "Polygon", "coordinates": [ [ [ 34.457251, 31.532102, 0.0 ], [ 34.457539, 31.532062, 0.0 ], [ 34.457876, 31.532054, 0.0 ], [ 34.458191, 31.53203, 0.0 ], [ 34.45815, 31.532405, 0.0 ], [ 34.458114, 31.532568, 0.0 ], [ 34.457787, 31.53256, 0.0 ], [ 34.457473, 31.532307, 0.0 ], [ 34.457251, 31.532102, 0.0 ] ] ] } },
{ "type": "Feature", "properties": { "id": null, "Name": "GZA5270", "description": "Site Name: Hsan Selema School<br>الوصف: <br>y: <br>x: <br>Site code: ", "timestamp": null, "begin": null, "end": null, "altitudeMode": null, "tessellate": -1, "extrude": 0, "visibility": -1, "drawOrder": null, "icon": null, "Site_Name": "Hsan Selema School", "__________": "", "y": "", "x": "", "Site_code": "" }, "geometry": { "type": "Polygon", "coordinates": [ [ [ 34.4614177, 31.5314469, 0.0 ], [ 34.4609378, 31.531898, 0.0 ], [ 34.4602796, 31.5313823, 0.0 ], [ 34.4607579, 31.5308982, 0.0 ], [ 34.4614177, 31.5314469, 0.0 ] ] ] } },
{ "type": "Feature", "properties": { "id": null, "Name": "GZA5007", "description": "Site Name: Aman 3<br>الوصف: <br>y: <br>x: <br>Site code: ", "timestamp": null, "begin": null, "end": null, "altitudeMode": null, "tessellate": -1, "extrude": 0, "visibility": -1, "drawOrder": null, "icon": null, "Site_Name": "Aman 3", "__________": "", "y": "", "x": "", "Site_code": "" }, "geometry": { "type": "Polygon", "coordinates": [ [ [ 34.467888, 31.5291225, 0.0 ], [ 34.4667616, 31.5301929, 0.0 ], [ 34.4652399, 31.5288686, 0.0 ], [ 34.4664825, 31.5279062, 0.0 ], [ 34.467888, 31.5291225, 0.0 ] ] ] } },
{ "type": "Feature", "properties": { "id": null, "Name": "GAZ5031", "description": "Site Name: Jesser Alhayat Site<br>الوصف: <br>y: <br>x: <br>Site code: ", "timestamp": null, "begin": null, "end": null, "altitudeMode": null, "tessellate": -1, "extrude": 0, "visibility": -1, "drawOrder": null, "icon": null, "Site_Name": "Jesser Alhayat Site", "__________": "", "y": "", "x": "", "Site_code": "" }, "geometry": { "type": "Polygon", "coordinates": [ [ [ 34.4667616, 31.5301929, 0.0 ], [ 34.4657302, 31.5310098, 0.0 ], [ 34.463798, 31.5295099, 0.0 ], [ 34.4652399, 31.5288686, 0.0 ], [ 34.4667616, 31.5301929, 0.0 ] ] ] } },
{ "type": "Feature", "properties": { "id": null, "Name": "GZA5343 ", "description": "Site Name: Al Qastal camp<br>الوصف: 1 <br> <br> SHAPE Polygon <br> SITEDCODE GZA5343 ‏<br>y: <br>x: <br>Site code: ", "timestamp": null, "begin": null, "end": null, "altitudeMode": null, "tessellate": -1, "extrude": 0, "visibility": -1, "drawOrder": null, "icon": null, "Site_Name": "Al Qastal camp", "__________": "1 \n \n SHAPE Polygon \n SITEDCODE GZA5343 ‏", "y": "", "x": "", "Site_code": "" }, "geometry": { "type": "Polygon", "coordinates": [ [ [ 34.460697, 31.530499, 0.0 ], [ 34.460407, 31.530817, 0.0 ], [ 34.459931, 31.531151, 0.0 ], [ 34.459629, 31.531351, 0.0 ], [ 34.459421, 31.531121, 0.0 ], [ 34.459633, 31.530901, 0.0 ], [ 34.459738, 31.530737, 0.0 ], [ 34.460024, 31.530606, 0.0 ], [ 34.460216, 31.530422, 0.0 ], [ 34.460364, 31.530244, 0.0 ], [ 34.460697, 31.530499, 0.0 ] ] ] } },
{ "type": "Feature", "properties": { "id": null, "Name": "GZA4437 ", "description": "Site Name: Al-Zaharna site<br>الوصف: 2 <br> <br> SHAPE Polygon <br> SITEDCODE GZA4437 ‏<br>y: <br>x: <br>Site code: ", "timestamp": null, "begin": null, "end": null, "altitudeMode": null, "tessellate": -1, "extrude": 0, "visibility": -1, "drawOrder": null, "icon": null, "Site_Name": "Al-Zaharna site", "__________": "2 \n \n SHAPE Polygon \n SITEDCODE GZA4437 ‏", "y": "", "x": "", "Site_code": "" }, "geometry": { "type": "Polygon", "coordinates": [ [ [ 34.457242, 31.519904, 0.0 ], [ 34.457866, 31.520378, 0.0 ], [ 34.45779, 31.520472, 0.0 ], [ 34.457506, 31.520259, 0.0 ], [ 34.457054, 31.520614, 0.0 ], [ 34.456795, 31.520394, 0.0 ], [ 34.457242, 31.519904, 0.0 ] ] ] } },
{ "type": "Feature", "properties": { "id": null, "Name": "ACT8999 ", "description": "Site Name: Al Jalaa Site<br>الوصف: 3 <br> <br> SHAPE Polygon <br> SITEDCODE ACT8999 ‏<br>y: <br>x: <br>Site code: ", "timestamp": null, "begin": null, "end": null, "altitudeMode": null, "tessellate": -1, "extrude": 0, "visibility": -1, "drawOrder": null, "icon": null, "Site_Name": "Al Jalaa Site", "__________": "3 \n \n SHAPE Polygon \n SITEDCODE ACT8999 ‏", "y": "", "x": "", "Site_code": "" }, "geometry": { "type": "Polygon", "coordinates": [ [ [ 34.4664825, 31.5279062, 0.0 ], [ 34.4652399, 31.5288686, 0.0 ], [ 34.4648774, 31.5290217, 0.0 ], [ 34.462884, 31.526598, 0.0 ], [ 34.463981, 31.525714, 0.0 ], [ 34.4664825, 31.5279062, 0.0 ] ] ] } },
{ "type": "Feature", "properties": { "id": null, "Name": "GZA4123", "description": "Site Name: Al-Aila Al-Muqaddasa School Shelter<br>الوصف: <br>y: <br>x: <br>Site code: ", "timestamp": null, "begin": null, "end": null, "altitudeMode": null, "tessellate": -1, "extrude": 0, "visibility": -1, "drawOrder": null, "icon": null, "Site_Name": "Al-Aila Al-Muqaddasa School Shelter", "__________": "", "y": "", "x": "", "Site_code": "" }, "geometry": { "type": "Polygon", "coordinates": [ [ [ 34.4517816, 31.524176, 0.0 ], [ 34.4524267, 31.5235952, 0.0 ], [ 34.4530691, 31.5230487, 0.0 ], [ 34.4535653, 31.5234786, 0.0 ], [ 34.452825, 31.5240925, 0.0 ], [ 34.4531066, 31.5243337, 0.0 ], [ 34.4524924, 31.5248138, 0.0 ], [ 34.4517816, 31.524176, 0.0 ] ] ] } }
]
}
